NORAD_CAT_ID,OBJECT_NAME,OBJECT_TYPE,EPOCH,MEAN_MOTION,ECCENTRICITY,INCLINATION,RA_OF_ASC_NODE,ARG_OF_PERICENTER,MEAN_ANOMALY,BSTAR,MEAN_MOTION_DOT,MEAN_MOTION_DDOT,TLE_LINE0,TLE_LINE1,TLE_LINE2,SEMIMAJOR_AXIS,PERIOD,APOGEE,PERIGEE,DECAYED
54180.0,STARLINK-5228,PAYLOAD,2023-10-31 04:08:55,15.08847685,0.0001831,53.2168,266.7851,88.0764,272.0438,0.00031309,4.699e-05,0.0,0 STARLINK-5228,1 54180U 22141Z   23304.17286149  .00004699  00000-0  31309-3 0  9995,2 54180  53.2168 266.7851 0001831  88.0764 272.0438 15.08847685 56184,6917.857,95.437,540.989,538.455,0.0
54180.0,STARLINK-5228,PAYLOAD,2023-10-31 21:38:09,15.08847165,0.0001845,53.2169,263.5145,86.2638,273.8565,0.00048298,7.408e-05,0.0,0 STARLINK-5228,1 54180U 22141Z   23304.90150170  .00007408  00000-0  48298-3 0  9996,2 54180  53.2169 263.5145 0001845  86.2638 273.8565 15.08847165 56061,6917.858,95.437,541.0,538.447,0.0
54180.0,STARLINK-5228,PAYLOAD,2023-11-01 07:10:28,15.08859478,0.0001542,53.2174,261.7287,87.8324,272.2845,0.00070742,0.00010994,0.0,0 STARLINK-5228,1 54180U 22141Z   23305.29893655  .00010994  00000-0  70742-3 0  9994,2 54180  53.2174 261.7287 0001542  87.8324 272.2845 15.08859478 56353,6917.821,95.436,540.753,538.619,0.0
54180.0,STARLINK-5228,PAYLOAD,2023-11-01 21:28:56,15.08844956,0.0001446,53.2176,259.0539,87.89,272.2258,0.00014444,2.012e-05,0.0,0 STARLINK-5228,1 54180U 22141Z   23305.89509878  .00002012  00000-0  14444-3 0  9990,2 54180  53.2176 259.0539 0001446  87.8900 272.2258 15.08844956 56216,6917.865,95.437,540.731,538.73,0.0
54180.0,STARLINK-5228,PAYLOAD,2023-11-02 03:50:28,15.08850785,0.0001513,53.2173,257.8641,95.2249,264.8916,0.00031584,4.744e-05,0.0,0 STARLINK-5228,1 54180U 22141Z   23306.16005670  .00004744  00000-0  31584-3 0  9990,2 54180  53.2173 257.8641 0001513  95.2249 264.8916 15.08850785 56481,6917.847,95.437,540.759,538.666,0.0
54180.0,STARLINK-5228,PAYLOAD,2023-11-02 21:19:43,15.08839124,0.0001497,53.2168,254.5937,99.4869,260.6292,0.00010006,1.305e-05,0.0,0 STARLINK-5228,1 54180U 22141Z   23306.88869991  .00001305  00000-0  10006-3 0  9999,2 54180  53.2168 254.5937 0001497  99.4869 260.6292 15.08839124 56599,6917.883,95.438,540.784,538.712,0.0
54180.0,STARLINK-5228,PAYLOAD,2023-11-03 13:13:35,15.08838896,0.0001559,53.2168,251.621,91.8421,268.275,0.00014135,1.962e-05,0.0,0 STARLINK-5228,1 54180U 22141Z   23307.55109992  .00001962  00000-0  14135-3 0  9998,2 54180  53.2168 251.6210 0001559  91.8421 268.2750 15.08838896 56464,6917.884,95.438,540.827,538.67,0.0
54180.0,STARLINK-5228,PAYLOAD,2023-11-03 19:35:07,15.08838552,0.0001541,53.2177,250.434,93.8313,266.2855,9.8112e-05,1.274e-05,0.0,0 STARLINK-5228,1 54180U 22141Z   23307.81606281  .00001274  00000-0  98112-4 0  9994,2 54180  53.2177 250.4340 0001541  93.8313 266.2855 15.08838552 56506,6917.885,95.438,540.816,538.684,0.0
54180.0,STARLINK-5228,PAYLOAD,2023-11-04 03:32:03,15.08837747,0.0001231,53.2166,248.9467,92.5864,267.5269,9.9596e-05,1.297e-05,0.0,0 STARLINK-5228,1 54180U 22141Z   23308.14726439  .00001297  00000-0  99596-4 0  9991,2 54180  53.2166 248.9467 0001231  92.5864 267.5269 15.08837747 56787,6917.887,95.438,540.604,538.901,0.0
54180.0,STARLINK-5228,PAYLOAD,2023-11-04 06:42:49,15.08846256,0.0001388,53.2167,248.3502,92.7567,267.3583,0.00024868,3.673e-05,0.0,0 STARLINK-5228,1 54180U 22141Z   23308.27974017  .00003673  00000-0  24868-3 0  9991,2 54180  53.2167 248.3502 0001388  92.7567 267.3583 15.08846256 56802,6917.861,95.437,540.686,538.766,0.0
54180.0,STARLINK-5228,PAYLOAD,2023-11-04 13:04:22,15.08841552,0.0001248,53.2164,247.1588,84.3949,275.7185,0.00017328,2.471e-05,0.0,0 STARLINK-5228,1 54180U 22141Z   23308.54470227  .00002471  00000-0  17328-3 0  9993,2 54180  53.2164 247.1588 0001248  84.3949 275.7185 15.08841552 56610,6917.876,95.437,540.604,538.877,0.0
54180.0,STARLINK-5228,PAYLOAD,2023-11-05 12:55:08,15.08852962,0.0001703,53.2171,242.6999,93.0872,267.0315,0.00030457,4.564e-05,0.0,0 STARLINK-5228,1 54180U 22141Z   23309.53829782  .00004564  00000-0  30457-3 0  9990,2 54180  53.2171 242.6999 0001703  93.0872 267.0315 15.08852962 56764,6917.841,95.437,540.884,538.528,0.0
54180.0,STARLINK-5228,PAYLOAD,2023-11-06 03:13:36,15.08829722,0.0001374,53.2171,240.0224,82.1322,277.9826,-0.00053876,-8.85e-05,0.0,0 STARLINK-5228,1 54180U 22141Z   23310.13445430 -.00008850  00000-0 -53876-3 0  9996,2 54180  53.2171 240.0224 0001374  82.1322 277.9826 15.08829722 57081,6917.912,95.438,540.727,538.826,0.0
54180.0,STARLINK-5228,PAYLOAD,2023-11-06 04:48:59,15.08836977,0.0001393,53.217,239.7257,79.6592,280.4557,-0.00059407,-9.729e-05,0.0,0 STARLINK-5228,1 54180U 22141Z   23310.20068982 -.00009729  00000-0 -59407-3 0  9999,2 54180  53.2170 239.7257 0001393  79.6592 280.4557 15.08836977 57093,6917.89,95.438,540.718,538.791,0.0
54180.0,STARLINK-5228,PAYLOAD,2023-11-06 12:45:56,15.08806317,0.0001205,53.2172,238.2397,97.4495,262.6634,-0.0012465,-0.00020053,0.0,0 STARLINK-5228,1 54180U 22141Z   23310.53190003 -.00020053  00000-0 -12465-2 0  9990,2 54180  53.2172 238.2397 0001205  97.4495 262.6634 15.08806317 56919,6917.983,95.44,540.682,539.015,0.0
54180.0,STARLINK-5228,PAYLOAD,2023-11-07 12:36:45,15.08814909,9.6e-05,53.217,233.7793,107.8866,252.2231,0.00074037,0.00011507,0.0,0 STARLINK-5228,1 54180U 22141Z   23311.52552573  .00011507  00000-0  74037-3 0  9990,2 54180  53.2170 233.7793 0000960 107.8866 252.2231 15.08814909 57063,6917.957,95.439,540.486,539.158,0.0
54180.0,STARLINK-5228,PAYLOAD,2023-11-08 01:19:49,15.08860007,0.0001475,53.2174,231.4003,102.2306,257.8851,0.0012356,0.00019442,0.0,0 STARLINK-5228,1 54180U 22141Z   23312.05543684  .00019442  00000-0  12356-2 0  9993,2 54180  53.2174 231.4003 0001475 102.2306 257.8851 15.08860007 57379,6917.819,95.436,540.705,538.664,0.0
54180.0,STARLINK-5228,PAYLOAD,2023-11-08 04:30:35,15.08858226,0.0001447,53.2173,230.8055,95.3347,264.7811,0.0010849,0.00017029,0.0,0 STARLINK-5228,1 54180U 22141Z   23312.18791616  .00017029  00000-0  10849-2 0  9991,2 54180  53.2173 230.8055 0001447  95.3347 264.7811 15.08858226 57164,6917.825,95.436,540.691,538.689,0.0
54180.0,STARLINK-5228,PAYLOAD,2023-11-08 21:59:50,15.08853178,0.0001354,53.2172,227.535,98.25,261.8645,0.0004011,6.104e-05,0.0,0 STARLINK-5228,1 54180U 22141Z   23312.91655421  .00006104  00000-0  40110-3 0  9992,2 54180  53.2172 227.5350 0001354  98.2500 261.8645 15.08853178 57270,6917.84,95.437,540.642,538.768,0.0
54180.0,STARLINK-5228,PAYLOAD,2023-11-09 01:10:36,15.08858446,0.0001439,53.217,226.9398,101.3558,258.7596,0.00063342,9.812e-05,0.0,0 STARLINK-5228,1 54180U 22141Z   23313.04903214  .00009812  00000-0  63342-3 0  9994,2 54180  53.2170 226.9398 0001439 101.3558 258.7596 15.08858446 57527,6917.824,95.436,540.684,538.694,0.0
54180.0,STARLINK-5228,PAYLOAD,2023-11-09 04:21:22,15.08863955,0.0001434,53.2172,226.3447,93.8828,266.2328,0.00065629,0.00010179,0.0,0 STARLINK-5228,1 54180U 22141Z   23313.18150767  .00010179  00000-0  65629-3 0  9994,2 54180  53.2172 226.3447 0001434  93.8828 266.2328 15.08863955 57313,6917.807,95.436,540.664,538.68,0.0
54180.0,STARLINK-5228,PAYLOAD,2023-11-09 21:50:36,15.08843249,0.0001214,53.2173,223.0745,103.7586,256.3541,-0.00022282,-3.833e-05,0.0,0 STARLINK-5228,1 54180U 22141Z   23313.91014875 -.00003833  00000-0 -22282-3 0  9993,2 54180  53.2173 223.0745 0001214 103.7586 256.3541 15.08843249 57420,6917.87,95.437,540.575,538.896,0.0
54180.0,STARLINK-5228,PAYLOAD,2023-11-10 01:01:22,15.08853641,0.0001244,53.2172,222.479,107.7368,252.376,-6.1477e-05,-1.267e-05,0.0,0 STARLINK-5228,1 54180U 22141Z   23314.04262250 -.00001267  00000-0 -61477-4 0  9999,2 54180  53.2172 222.4790 0001244 107.7368 252.3760 15.08853641 57670,6917.839,95.437,540.564,538.843,0.0
54180.0,STARLINK-5228,PAYLOAD,2023-11-10 10:33:41,15.08846364,0.0001193,53.217,220.6962,107.2965,252.8158,-2.6279e-05,-7.06e-06,0.0,0 STARLINK-5228,1 54180U 22141Z   23314.44006438 -.00000706  00000-0 -26279-4 0  9995,2 54180  53.2170 220.6962 0001193 107.2965 252.8158 15.08846364 57737,6917.861,95.437,540.551,538.901,0.0
54180.0,STARLINK-5228,PAYLOAD,2023-11-11 10:24:28,15.08845595,0.0001293,53.2176,216.236,86.3113,273.8027,-5.063e-06,-3.68e-06,0.0,0 STARLINK-5228,1 54180U 22141Z   23315.43366515 -.00000368  00000-0 -50630-5 0  9993,2 54180  53.2176 216.2360 0001293  86.3113 273.8027 15.08845595 57653,6917.863,95.437,540.623,538.834,0.0
54180.0,STARLINK-5228,PAYLOAD,2023-11-11 16:46:01,15.08837316,0.0001095,53.2181,215.0486,98.1802,261.9314,0.00019578,2.829e-05,0.0,0 STARLINK-5228,1 54180U 22141Z   23315.69863205  .00002829  00000-0  19578-3 0  9995,2 54180  53.2181 215.0486 0001095  98.1802 261.9314 15.08837316 57920,6917.889,95.438,540.511,538.996,0.0
54180.0,STARLINK-5228,PAYLOAD,2023-11-11 21:32:11,15.08834669,0.0001217,53.2181,214.1552,100.4895,259.6235,-7.4414e-05,-1.472e-05,0.0,0 STARLINK-5228,1 54180U 22141Z   23315.89735358 -.00001472  00000-0 -74414-4 0  9990,2 54180  53.2181 214.1552 0001217 100.4895 259.6235 15.08834669 57721,6917.897,95.438,540.604,538.92,0.0
54180.0,STARLINK-5228,PAYLOAD,2023-11-12 10:15:16,15.08836362,0.0001356,53.219,211.7757,92.072,268.0427,5.0157e-05,5.1e-06,0.0,0 STARLINK-5228,1 54180U 22141Z   23316.42727819  .00000510  00000-0  50157-4 0  9991,2 54180  53.2190 211.7757 0001356  92.0720 268.0427 15.08836362 58032,6917.892,95.438,540.695,538.818,0.0
54180.0,STARLINK-5228,PAYLOAD,2023-11-12 21:22:58,15.08835825,0.0001237,53.2183,209.6943,88.263,271.8504,0.00010301,1.352e-05,0.0,0 STARLINK-5228,1 54180U 22141Z   23316.89095808  .00001352  00000-0  10301-3 0  9999,2 54180  53.2183 209.6943 0001237  88.2630 271.8504 15.08835825 57874,6917.893,95.438,540.614,538.902,0.0
54180.0,STARLINK-5228,PAYLOAD,2023-11-13 10:06:03,15.08844275,0.0001315,53.2174,207.3144,83.4363,276.6779,3.8424e-05,3.24e-06,0.0,0 STARLINK-5228,1 54180U 22141Z   23317.42087459  .00000324  00000-0  38424-4 0  9997,2 54180  53.2174 207.3144 0001315  83.4363 276.6779 15.08844275 57954,6917.867,95.437,540.642,538.823,0.0
